[{"OBJECT_NAME":"STARLINK-4470","OBJECT_ID":"2022-105H","EPOCH":"2026-03-09T16:19:57.988128","MEAN_MOTION":15.05645183,"ECCENTRICITY":0.00026506,"INCLINATION":97.6009,"RA_OF_ASC_NODE":311.1586,"ARG_OF_PERICENTER":84.6866,"MEAN_ANOMALY":275.4663,"EPHEMERIS_TYPE":0,"CLASSIFICATION_TYPE":"U","NORAD_CAT_ID":53655,"ELEMENT_SET_NO":999,"REV_AT_EPOCH":19329,"BSTAR":-2.7041053e-5,"MEAN_MOTION_DOT":-4.51e-6,"MEAN_MOTION_DDOT":0},{"OBJECT_NAME":"RE","OBJECT_ID":"2012-048H","EPOCH":"2026-03-09T14:34:58.971936","MEAN_MOTION":15.18958187,"ECCENTRICITY":0.0110372,"INCLINATION":64.6561,"RA_OF_ASC_NODE":148.4253,"ARG_OF_PERICENTER":206.6471,"MEAN_ANOMALY":152.8958,"EPHEMERIS_TYPE":0,"CLASSIFICATION_TYPE":"U","NORAD_CAT_ID":38765,"ELEMENT_SET_NO":999,"REV_AT_EPOCH":10026,"BSTAR":0.00059519,"MEAN_MOTION_DOT":0.00014497,"MEAN_MOTION_DDOT":0}]
